[{"OBJECT_NAME":"SJ-11-06","OBJECT_ID":"2014-014A","EPOCH":"2026-03-09T23:36:53.923680","MEAN_MOTION":14.61777646,"ECCENTRICITY":0.00126361,"INCLINATION":97.9599,"RA_OF_ASC_NODE":99.4808,"ARG_OF_PERICENTER":301.1982,"MEAN_ANOMALY":58.7981,"EPHEMERIS_TYPE":0,"CLASSIFICATION_TYPE":"U","NORAD_CAT_ID":39624,"ELEMENT_SET_NO":999,"REV_AT_EPOCH":63620,"BSTAR":0.00014245201,"MEAN_MOTION_DOT":6.66e-6,"MEAN_MOTION_DDOT":0},{"OBJECT_NAME":"FENGYUN 1C DEB","OBJECT_ID":"1999-025EAG","EPOCH":"2026-02-25T09:09:33.732288","MEAN_MOTION":14.50736676,"ECCENTRICITY":0.0064316,"INCLINATION":98.3702,"RA_OF_ASC_NODE":118.1006,"ARG_OF_PERICENTER":314.0767,"MEAN_ANOMALY":45.5143,"EPHEMERIS_TYPE":0,"CLASSIFICATION_TYPE":"U","NORAD_CAT_ID":36710,"ELEMENT_SET_NO":999,"REV_AT_EPOCH":66035,"BSTAR":0.0010875,"MEAN_MOTION_DOT":4.346e-5,"MEAN_MOTION_DDOT":0}]
